RADUGA-1 7 [-]          
1 28194U 04010A   17345.83307198  .00000103  00000-0  00000-0 0  9992
2 28194   9.9569  44.5540 0004866 211.1292 146.8827  1.00236479 50225
